STARLINK-1408           
1 45688U 20035AH  24199.58709540  .00111287  00000+0  27980-2 0  9991
2 45688  53.0765 154.4594 0006093  12.9911 347.1249 15.39095256229527
STARLINK-1413           
1 45689U 20035AJ  24199.38062122  .00003503  00000+0  25383-3 0  9995
2 45689  53.0533 231.5097 0001369  84.9880 275.1265 15.06415485228308
STARLINK-1414           
1 45690U 20035AK  24199.87088487 -.00000423  00000+0 -95112-5 0  9992
2 45690  53.0547 229.5344 0001136  81.4881 278.6237 15.06392363228409
STARLINK-1415           
1 45691U 20035AL  24200.25002315  .00272700  00000+0  95671-3 0  9999
2 45691  53.0449 182.8804 0008983  48.2033 267.1120 15.87916858229113
STARLINK-1416           
1 45692U 20035AM  24199.48747144  .00001089  00000+0  56960-4 0  9997
2 45692  53.0563 227.4931 0001256  87.0896 273.0245 15.24719702228452
STARLINK-1417           
1 45693U 20035AN  24199.37692686  .00000414  00000+0  46645-4 0  9996
2 45693  53.0542 231.5291 0001001  88.2256 271.8848 15.06409618228385
STARLINK-1420           
1 45695U 20035AQ  24200.17400727  .00000278  00000+0  37531-4 0  9994
2 45695  53.0535 207.9393 0001197  86.3358 273.7768 15.06387909228387
STARLINK-1422           
1 45696U 20035AR  24199.38799135  .00001683  00000+0  13183-3 0  9996
2 45696  53.0539 231.4773 0001140  89.8468 270.2651 15.06408561228385
STARLINK-1351           
1 45697U 20035AS  24200.22655157  .00000527  00000+0  54309-4 0  9990
2 45697  53.0526 207.7124 0001165  88.0225 272.0897 15.06390006228394
STARLINK-1370           
1 45698U 20035AT  24200.25002315  .00440146  89545-4  10660-2 0  9997
2 45698  53.0422 150.8787 0002099 164.5830 130.2024 15.95810036229196
STARLINK-1398           
1 45699U 20035AU  24200.20443693 -.00000591  00000+0 -20793-4 0  9993
2 45699  53.0531 207.8134 0001134  78.5567 281.5550 15.06396838228438
STARLINK-1400           
1 45700U 20035AV  24199.33822884  .00000353  00000+0  42580-4 0  9992
2 45700  53.0545 211.7003 0001079  90.1185 269.9928 15.06411348228667
STARLINK-1403           
1 45701U 20035AW  24199.43406136  .00001284  00000+0  10508-3 0  9990
2 45701  53.0534 211.2679 0001045  90.1697 269.9412 15.06405496228677
STARLINK-1405           
1 45702U 20035AX  24199.34928685  .00000744  00000+0  68821-4 0  9991
2 45702  53.0543 211.6514 0001262  87.9311 272.1823 15.06400839228665
STARLINK-1407           
1 45703U 20035AY  24199.41195399  .00000316  00000+0  40093-4 0  9994
2 45703  53.0550 211.3704 0001215  87.2911 272.8217 15.06398386228677
STARLINK-1409           
1 45704U 20035AZ  24199.91667824  .00327672  52184-4  92655-3 0  9999
2 45704  53.0422 173.1294 0008410  57.8247 110.1100 15.92891045  5879
