[{"OBJECT_NAME":"STARLINK-1408","OBJECT_ID":"2020-035AH","EPOCH":"2024-07-17T14:05:25.042560","MEAN_MOTION":15.39095256,"ECCENTRICITY":0.0006093,"INCLINATION":53.0765,"RA_OF_ASC_NODE":154.4594,"ARG_OF_PERICENTER":12.9911,"MEAN_ANOMALY":347.1249,"EPHEMERIS_TYPE":0,"CLASSIFICATION_TYPE":"U","NORAD_CAT_ID":45688,"ELEMENT_SET_NO":999,"REV_AT_EPOCH":22952,"BSTAR":0.002798,"MEAN_MOTION_DOT":0.00111287,"MEAN_MOTION_DDOT":0},{"OBJECT_NAME":"STARLINK-1413","OBJECT_ID":"2020-035AJ","EPOCH":"2024-07-17T09:08:05.673408","MEAN_MOTION":15.06415485,"ECCENTRICITY":0.0001369,"INCLINATION":53.0533,"RA_OF_ASC_NODE":231.5097,"ARG_OF_PERICENTER":84.988,"MEAN_ANOMALY":275.1265,"EPHEMERIS_TYPE":0,"CLASSIFICATION_TYPE":"U","NORAD_CAT_ID":45689,"ELEMENT_SET_NO":999,"REV_AT_EPOCH":22830,"BSTAR":0.00025383,"MEAN_MOTION_DOT":3.503e-5,"MEAN_MOTION_DDOT":0},{"OBJECT_NAME":"STARLINK-1414","OBJECT_ID":"2020-035AK","EPOCH":"2024-07-17T20:54:04.452768","MEAN_MOTION":15.06392363,"ECCENTRICITY":0.0001136,"INCLINATION":53.0547,"RA_OF_ASC_NODE":229.5344,"ARG_OF_PERICENTER":81.4881,"MEAN_ANOMALY":278.6237,"EPHEMERIS_TYPE":0,"CLASSIFICATION_TYPE":"U","NORAD_CAT_ID":45690,"ELEMENT_SET_NO":999,"REV_AT_EPOCH":22840,"BSTAR":-9.5112e-6,"MEAN_MOTION_DOT":-4.23e-6,"MEAN_MOTION_DDOT":0},{"OBJECT_NAME":"STARLINK-1415","OBJECT_ID":"2020-035AL","EPOCH":"2024-07-18T06:00:02.000160","MEAN_MOTION":15.87916858,"ECCENTRICITY":0.0008983,"INCLINATION":53.0449,"RA_OF_ASC_NODE":182.8804,"ARG_OF_PERICENTER":48.2033,"MEAN_ANOMALY":267.112,"EPHEMERIS_TYPE":0,"CLASSIFICATION_TYPE":"U","NORAD_CAT_ID":45691,"ELEMENT_SET_NO":999,"REV_AT_EPOCH":22911,"BSTAR":0.00095671,"MEAN_MOTION_DOT":0.002727,"MEAN_MOTION_DDOT":0},{"OBJECT_NAME":"STARLINK-1416","OBJECT_ID":"2020-035AM","EPOCH":"2024-07-17T11:41:57.532416","MEAN_MOTION":15.24719702,"ECCENTRICITY":0.0001256,"INCLINATION":53.0563,"RA_OF_ASC_NODE":227.4931,"ARG_OF_PERICENTER":87.0896,"MEAN_ANOMALY":273.0245,"EPHEMERIS_TYPE":0,"CLASSIFICATION_TYPE":"U","NORAD_CAT_ID":45692,"ELEMENT_SET_NO":999,"REV_AT_EPOCH":22845,"BSTAR":5.696e-5,"MEAN_MOTION_DOT":1.089e-5,"MEAN_MOTION_DDOT":0},{"OBJECT_NAME":"STARLINK-1417","OBJECT_ID":"2020-035AN","EPOCH":"2024-07-17T09:02:46.480704","MEAN_MOTION":15.06409618,"ECCENTRICITY":0.0001001,"INCLINATION":53.0542,"RA_OF_ASC_NODE":231.5291,"ARG_OF_PERICENTER":88.2256,"MEAN_ANOMALY":271.8848,"EPHEMERIS_TYPE":0,"CLASSIFICATION_TYPE":"U","NORAD_CAT_ID":45693,"ELEMENT_SET_NO":999,"REV_AT_EPOCH":22838,"BSTAR":4.6645e-5,"MEAN_MOTION_DOT":4.14e-6,"MEAN_MOTION_DDOT":0},{"OBJECT_NAME":"STARLINK-1420","OBJECT_ID":"2020-035AQ","EPOCH":"2024-07-18T04:10:34.228128","MEAN_MOTION":15.06387909,"ECCENTRICITY":0.0001197,"INCLINATION":53.0535,"RA_OF_ASC_NODE":207.9393,"ARG_OF_PERICENTER":86.3358,"MEAN_ANOMALY":273.7768,"EPHEMERIS_TYPE":0,"CLASSIFICATION_TYPE":"U","NORAD_CAT_ID":45695,"ELEMENT_SET_NO":999,"REV_AT_EPOCH":22838,"BSTAR":3.7531e-5,"MEAN_MOTION_DOT":2.78e-6,"MEAN_MOTION_DDOT":0},{"OBJECT_NAME":"STARLINK-1422","OBJECT_ID":"2020-035AR","EPOCH":"2024-07-17T09:18:42.452640","MEAN_MOTION":15.06408561,"ECCENTRICITY":0.000114,"INCLINATION":53.0539,"RA_OF_ASC_NODE":231.4773,"ARG_OF_PERICENTER":89.8468,"MEAN_ANOMALY":270.2651,"EPHEMERIS_TYPE":0,"CLASSIFICATION_TYPE":"U","NORAD_CAT_ID":45696,"ELEMENT_SET_NO":999,"REV_AT_EPOCH":22838,"BSTAR":0.00013183,"MEAN_MOTION_DOT":1.683e-5,"MEAN_MOTION_DDOT":0},{"OBJECT_NAME":"STARLINK-1351","OBJECT_ID":"2020-035AS","EPOCH":"2024-07-18T05:26:14.055648","MEAN_MOTION":15.06390006,"ECCENTRICITY":0.0001165,"INCLINATION":53.0526,"RA_OF_ASC_NODE":207.7124,"ARG_OF_PERICENTER":88.0225,"MEAN_ANOMALY":272.0897,"EPHEMERIS_TYPE":0,"CLASSIFICATION_TYPE":"U","NORAD_CAT_ID":45697,"ELEMENT_SET_NO":999,"REV_AT_EPOCH":22839,"BSTAR":5.4309e-5,"MEAN_MOTION_DOT":5.27e-6,"MEAN_MOTION_DDOT":0},{"OBJECT_NAME":"STARLINK-1370","OBJECT_ID":"2020-035AT","EPOCH":"2024-07-18T06:00:02.000160","MEAN_MOTION":15.95810036,"ECCENTRICITY":0.0002099,"INCLINATION":53.0422,"RA_OF_ASC_NODE":150.8787,"ARG_OF_PERICENTER":164.583,"MEAN_ANOMALY":130.2024,"EPHEMERIS_TYPE":0,"CLASSIFICATION_TYPE":"U","NORAD_CAT_ID":45698,"ELEMENT_SET_NO":999,"REV_AT_EPOCH":22919,"BSTAR":0.001066,"MEAN_MOTION_DOT":0.00440146,"MEAN_MOTION_DDOT":8.9545e-5},{"OBJECT_NAME":"STARLINK-1398","OBJECT_ID":"2020-035AU","EPOCH":"2024-07-18T04:54:23.350752","MEAN_MOTION":15.06396838,"ECCENTRICITY":0.0001134,"INCLINATION":53.0531,"RA_OF_ASC_NODE":207.8134,"ARG_OF_PERICENTER":78.5567,"MEAN_ANOMALY":281.555,"EPHEMERIS_TYPE":0,"CLASSIFICATION_TYPE":"U","NORAD_CAT_ID":45699,"ELEMENT_SET_NO":999,"REV_AT_EPOCH":22843,"BSTAR":-2.0793e-5,"MEAN_MOTION_DOT":-5.91e-6,"MEAN_MOTION_DDOT":0},{"OBJECT_NAME":"STARLINK-1400","OBJECT_ID":"2020-035AV","EPOCH":"2024-07-17T08:07:02.971776","MEAN_MOTION":15.06411348,"ECCENTRICITY":0.0001079,"INCLINATION":53.0545,"RA_OF_ASC_NODE":211.7003,"ARG_OF_PERICENTER":90.1185,"MEAN_ANOMALY":269.9928,"EPHEMERIS_TYPE":0,"CLASSIFICATION_TYPE":"U","NORAD_CAT_ID":45700,"ELEMENT_SET_NO":999,"REV_AT_EPOCH":22866,"BSTAR":4.258e-5,"MEAN_MOTION_DOT":3.53e-6,"MEAN_MOTION_DDOT":0},{"OBJECT_NAME":"STARLINK-1403","OBJECT_ID":"2020-035AW","EPOCH":"2024-07-17T10:25:02.901504","MEAN_MOTION":15.06405496,"ECCENTRICITY":0.0001045,"INCLINATION":53.0534,"RA_OF_ASC_NODE":211.2679,"ARG_OF_PERICENTER":90.1697,"MEAN_ANOMALY":269.9412,"EPHEMERIS_TYPE":0,"CLASSIFICATION_TYPE":"U","NORAD_CAT_ID":45701,"ELEMENT_SET_NO":999,"REV_AT_EPOCH":22867,"BSTAR":0.00010508,"MEAN_MOTION_DOT":1.284e-5,"MEAN_MOTION_DDOT":0},{"OBJECT_NAME":"STARLINK-1405","OBJECT_ID":"2020-035AX","EPOCH":"2024-07-17T08:22:58.383840","MEAN_MOTION":15.06400839,"ECCENTRICITY":0.0001262,"INCLINATION":53.0543,"RA_OF_ASC_NODE":211.6514,"ARG_OF_PERICENTER":87.9311,"MEAN_ANOMALY":272.1823,"EPHEMERIS_TYPE":0,"CLASSIFICATION_TYPE":"U","NORAD_CAT_ID":45702,"ELEMENT_SET_NO":999,"REV_AT_EPOCH":22866,"BSTAR":6.8821e-5,"MEAN_MOTION_DOT":7.44e-6,"MEAN_MOTION_DDOT":0},{"OBJECT_NAME":"STARLINK-1407","OBJECT_ID":"2020-035AY","EPOCH":"2024-07-17T09:53:12.824736","MEAN_MOTION":15.06398386,"ECCENTRICITY":0.0001215,"INCLINATION":53.055,"RA_OF_ASC_NODE":211.3704,"ARG_OF_PERICENTER":87.2911,"MEAN_ANOMALY":272.8217,"EPHEMERIS_TYPE":0,"CLASSIFICATION_TYPE":"U","NORAD_CAT_ID":45703,"ELEMENT_SET_NO":999,"REV_AT_EPOCH":22867,"BSTAR":4.0093e-5,"MEAN_MOTION_DOT":3.16e-6,"MEAN_MOTION_DDOT":0},{"OBJECT_NAME":"STARLINK-1409","OBJECT_ID":"2020-035AZ","EPOCH":"2024-07-17T22:00:00.999936","MEAN_MOTION":15.92891045,"ECCENTRICITY":0.000841,"INCLINATION":53.0422,"RA_OF_ASC_NODE":173.1294,"ARG_OF_PERICENTER":57.8247,"MEAN_ANOMALY":110.11,"EPHEMERIS_TYPE":0,"CLASSIFICATION_TYPE":"U","NORAD_CAT_ID":45704,"ELEMENT_SET_NO":999,"REV_AT_EPOCH":587,"BSTAR":0.00092655,"MEAN_MOTION_DOT":0.00327672,"MEAN_MOTION_DDOT":5.2184e-5}]
